FALCONSAT-6             
1 43815U 18099BK  26068.72544389  .00005029  00000+0  19477-3 0  9998
2 43815  97.3865 145.8165 0014370 297.0944 181.0714 15.26532865398556
STARLINK-33531          
1 63399U 25065A   26067.46542635  .00036571  00000+0  13310-2 0  9995
2 63399  43.0009 113.9152 0001204 281.0419  79.0297 15.27601157 52659
